OBJECT_NAME,OBJECT_ID,EPOCH,MEAN_MOTION,ECCENTRICITY,INCLINATION,RA_OF_ASC_NODE,ARG_OF_PERICENTER,MEAN_ANOMALY,EPHEMERIS_TYPE,CLASSIFICATION_TYPE,NORAD_CAT_ID,ELEMENT_SET_NO,REV_AT_EPOCH,BSTAR,MEAN_MOTION_DOT,MEAN_MOTION_DDOT
HODOYOSHI-4,2014-033B,2026-07-17T03:46:04.590048,14.88191952,.002275,97.5455,21.5345,202.8255,157.1953,0,U,40011,999,65326,.41912E-4,.336E-5,0
DEIMOS-2,2014-033D,2026-07-17T03:01:38.820000,14.93798735,.0001148,97.5783,71.5580,109.9096,250.2248,0,U,40013,999,64219,.11172E-3,.113E-4,0
HODOYOSHI-3,2014-033F,2026-07-16T10:05:20.393088,14.85438467,.0031327,97.6447,359.2898,257.6701,102.1007,0,U,40015,999,65196,.60467E-4,.472E-5,0
SPOT 7,2014-034A,2026-07-17T04:18:29.974176,14.60981427,.0001583,98.0613,259.8962,95.3952,264.7430,0,U,40053,999,64151,.15513E-4,.31E-6,0
SKYSAT-B,2014-037D,2026-07-16T20:18:29.104416,14.88094091,.0005705,98.3854,158.5062,167.7385,192.3970,0,U,40072,999,65037,.72003E-4,.601E-5,0
WORLDVIEW-3 (WV-3),2014-048A,2026-07-17T03:37:38.106336,14.85065938,.0001447,97.8555,272.5691,153.0312,207.0978,0,U,40115,999,64635,.46704E-4,.346E-5,0
GAOFEN-2,2014-049A,2026-07-17T04:13:32.937024,14.80927361,.0008361,98.0096,262.3524,129.0712,231.1245,0,U,40118,999,64367,-.26962E-4,-.262E-5,0
YAOGAN-21,2014-053A,2026-07-17T04:24:13.899744,15.26776648,.0007508,97.1451,237.1367,0.7240,359.4009,0,U,40143,999,65953,.18047E-3,.4683E-4,0
YAOGAN-22,2014-063A,2026-07-16T20:17:39.166944,13.15531556,.0006887,100.7764,349.6161,121.7017,238.4766,0,U,40275,999,56371,.37684E-4,-.33E-6,0
ASNARO,2014-070A,2026-07-17T04:27:29.238048,15.19397031,.0004833,97.3443,273.4934,83.3784,276.8001,0,U,40298,999,64856,.19443E-3,.4049E-4,0
YAOGAN-24,2014-072A,2026-07-17T04:17:20.298624,14.76118657,.0014752,98.1530,335.7721,163.3052,196.8646,0,U,40310,999,62814,-.89013E-5,-.115E-5,0
CBERS 4,2014-079A,2026-07-17T05:14:01.344768,14.35515913,.0000691,98.3515,254.1051,56.5115,303.6137,0,U,40336,999,60826,-.1888E-4,-.97E-6,0
YAOGAN-26,2014-088A,2026-07-17T04:38:01.489056,15.48504478,.0001584,97.0647,197.7248,329.1601,30.9557,0,U,40362,999,64234,.34744E-3,.18408E-3,0
SMAP,2015-003A,2026-07-17T03:57:55.458144,14.63390021,.0001612,98.1285,204.8362,94.1479,265.9907,0,U,40376,999,61200,.40846E-4,.164E-5,0
KOMPSAT-3A,2015-014A,2026-07-17T05:37:00.983424,15.55510782,.0055993,97.6895,191.8289,68.5271,292.1940,0,U,40536,999,62648,.25621E-3,.1868E-3,0
SENTINEL-2A,2015-028A,2026-07-17T03:28:28.252416,14.30813993,.0001274,98.5680,272.5694,95.2013,264.9316,0,U,40697,999,57801,-.5694E-4,-.193E-5,0
GAOFEN-8,2015-030A,2026-07-17T04:12:26.320032,15.46991348,.0009952,97.6890,33.3671,89.1698,271.0691,0,U,40701,999,61608,.235E-3,.11786E-3,0
CARBONITE 1 (CBNT-1),2015-032D,2026-07-17T04:40:43.328352,14.83672709,.0014015,97.6517,15.0076,190.1414,169.9519,0,U,40718,999,59379,.15256E-3,.1211E-4,0
YAOGAN-27,2015-040A,2026-07-17T05:00:41.190048,13.16071612,.0008585,100.1169,183.2912,140.6621,219.5117,0,U,40878,999,52161,-.47525E-3,-.223E-5,0
GAOFEN-9 01,2015-047A,2026-07-17T05:23:17.810016,14.82937187,.0028319,97.6264,232.5531,44.0925,316.2540,0,U,40894,999,58464,.59432E-4,.434E-5,0
YAOGAN-28,2015-064A,2026-07-17T04:37:20.460288,15.27774269,.0012055,97.3115,335.8559,86.9926,273.2693,0,U,41026,999,59526,.12717E-3,.3383E-4,0
YAOGAN-29,2015-069A,2026-07-17T04:49:14.849184,14.83107235,.000059,98.0014,226.8797,10.5016,349.6209,0,U,41038,999,57507,-.42641E-5,-.89E-6,0
KENT RIDGE 1,2015-077B,2026-07-17T05:16:20.998272,15.23290017,.0008278,14.9805,42.6050,303.2914,56.6615,0,U,41167,999,58568,.62908E-4,.2298E-4,0
GAOFEN-4,2015-083A,2026-07-17T00:05:20.072256,1.00271753,.0004266,0.4325,83.7520,125.8784,192.2280,0,U,41194,999,3882,0,-.345E-5,0
JASON-3,2016-002A,2026-07-17T03:19:41.831904,12.87628760,.0008161,66.0416,62.8662,270.7312,89.2771,0,U,41240,999,49110,.1448E-3,-.26E-6,0
SENTINEL-3A,2016-011A,2026-07-17T03:53:17.554272,14.26740092,.0001343,98.6236,265.1130,89.4648,270.6686,0,U,41335,999,54233,.34073E-4,.39E-6,0
ZIYUAN 3-02 (ZY 3-02),2016-033A,2026-07-17T04:23:04.949088,15.21445843,.0014299,97.3825,273.3804,178.0083,182.1213,0,U,41556,999,56254,.12257E-3,.2691E-4,0
CARTOSAT-2C,2016-040A,2026-07-17T03:51:09.710784,15.19274989,.0009399,97.4465,257.7233,39.1543,321.0370,0,U,41599,999,55826,.15281E-3,.3157E-4,0
SKYSAT-C1,2016-040C,2026-07-17T01:01:50.628576,15.36766876,.0000262,96.9547,228.1510,236.3178,123.8042,0,U,41601,999,56245,.1429E-3,.5058E-4,0
LAPAN-A3,2016-040E,2026-07-17T03:33:05.414976,15.33284954,.0008252,97.1506,193.3151,267.5035,92.5264,0,U,41603,999,55940,.55468E-4,.171E-4,0
GAOFEN-3,2016-049A,2026-07-17T04:39:21.746016,14.42218994,.0001778,98.4012,205.5276,83.5804,276.5588,0,U,41727,999,52297,.30531E-4,.57E-6,0
