HODOYOSHI-4             
1 40011U 14033B   26198.15699757  .00000336  00000+0  41912-4 0  9994
2 40011  97.5455  21.5345 0022750 202.8255 157.1953 14.88191952653264
DEIMOS-2                
1 40013U 14033D   26198.12614375  .00001130  00000+0  11172-3 0  9993
2 40013  97.5783  71.5580 0001148 109.9096 250.2248 14.93798735642194
HODOYOSHI-3             
1 40015U 14033F   26197.42037492  .00000472  00000+0  60467-4 0  9996
2 40015  97.6447 359.2898 0031327 257.6701 102.1007 14.85438467651965
SPOT 7                  
1 40053U 14034A   26198.17951359  .00000031  00000+0  15513-4 0  9992
2 40053  98.0613 259.8962 0001583  95.3952 264.7430 14.60981427641517
SKYSAT-B                
1 40072U 14037D   26197.84617019  .00000601  00000+0  72003-4 0  9991
2 40072  98.3854 158.5062 0005705 167.7385 192.3970 14.88094091650379
WORLDVIEW-3 (WV-3)      
1 40115U 14048A   26198.15113549  .00000346  00000+0  46704-4 0  9990
2 40115  97.8555 272.5691 0001447 153.0312 207.0978 14.85065938646351
GAOFEN-2                
1 40118U 14049A   26198.17607566 -.00000262  00000+0 -26962-4 0  9996
2 40118  98.0096 262.3524 0008361 129.0712 231.1245 14.80927361643677
YAOGAN-21               
1 40143U 14053A   26198.18349421  .00004683  00000+0  18047-3 0  9996
2 40143  97.1451 237.1367 0007508   0.7240 359.4009 15.26776648659533
YAOGAN-22               
1 40275U 14063A   26197.84559221 -.00000033  00000+0  37684-4 0  9991
2 40275 100.7764 349.6161 0006887 121.7017 238.4766 13.15531556563716
ASNARO                  
1 40298U 14070A   26198.18575507  .00004049  00000+0  19443-3 0  9999
2 40298  97.3443 273.4934 0004833  83.3784 276.8001 15.19397031648560
YAOGAN-24               
1 40310U 14072A   26198.17870716 -.00000115  00000+0 -89013-5 0  9999
2 40310  98.1530 335.7721 0014752 163.3052 196.8646 14.76118657628140
CBERS 4                 
1 40336U 14079A   26198.21807112 -.00000097  00000+0 -18880-4 0  9991
2 40336  98.3515 254.1051 0000691  56.5115 303.6137 14.35515913608268
YAOGAN-26               
1 40362U 14088A   26198.19307279  .00018408  00000+0  34744-3 0  9995
2 40362  97.0647 197.7248 0001584 329.1601  30.9557 15.48504478642342
SMAP                    
1 40376U 15003A   26198.16522521  .00000164  00000+0  40846-4 0  9995
2 40376  98.1285 204.8362 0001612  94.1479 265.9907 14.63390021612000
KOMPSAT-3A              
1 40536U 15014A   26198.23403916  .00018680  00000+0  25621-3 0  9994
2 40536  97.6895 191.8289 0055993  68.5271 292.1940 15.55510782626484
SENTINEL-2A             
1 40697U 15028A   26198.14477144 -.00000193  00000+0 -56940-4 0  9992
2 40697  98.5680 272.5694 0001274  95.2013 264.9316 14.30813993578016
GAOFEN-8                
1 40701U 15030A   26198.17530463  .00011786  00000+0  23500-3 0  9991
2 40701  97.6890  33.3671 0009952  89.1698 271.0691 15.46991348616089
CARBONITE 1 (CBNT-1)    
1 40718U 15032D   26198.19494593  .00001211  00000+0  15256-3 0  9997
2 40718  97.6517  15.0076 0014015 190.1414 169.9519 14.83672709593797
YAOGAN-27               
1 40878U 15040A   26198.20881007 -.00000223  00000+0 -47525-3 0  9993
2 40878 100.1169 183.2912 0008585 140.6621 219.5117 13.16071612521618
GAOFEN-9 01             
1 40894U 15047A   26198.22451169  .00000434  00000+0  59432-4 0  9995
2 40894  97.6264 232.5531 0028319  44.0925 316.2540 14.82937187584647
YAOGAN-28               
1 41026U 15064A   26198.19259792  .00003383  00000+0  12717-3 0  9996
2 41026  97.3115 335.8559 0012055  86.9926 273.2693 15.27774269595261
YAOGAN-29               
1 41038U 15069A   26198.20086631 -.00000089  00000+0 -42641-5 0  9999
2 41038  98.0014 226.8797 0000590  10.5016 349.6209 14.83107235575079
KENT RIDGE 1            
1 41167U 15077B   26198.21968748  .00002298  00000+0  62908-4 0  9999
2 41167  14.9805  42.6050 0008278 303.2914  56.6615 15.23290017585683
GAOFEN-4                
1 41194U 15083A   26198.00370454 -.00000345  00000+0  00000+0 0  9996
2 41194   0.4325  83.7520 0004266 125.8784 192.2280  1.00271753 38824
JASON-3                 
1 41240U 16002A   26198.13867861 -.00000026  00000+0  14480-3 0  9994
2 41240  66.0416  62.8662 0008161 270.7312  89.2771 12.87628760491100
SENTINEL-3A             
1 41335U 16011A   26198.16200873  .00000039  00000+0  34073-4 0  9990
2 41335  98.6236 265.1130 0001343  89.4648 270.6686 14.26740092542337
ZIYUAN 3-02 (ZY 3-02)   
1 41556U 16033A   26198.18269617  .00002691  00000+0  12257-3 0  9997
2 41556  97.3825 273.3804 0014299 178.0083 182.1213 15.21445843562543
CARTOSAT-2C             
1 41599U 16040A   26198.16052906  .00003157  00000+0  15281-3 0  9999
2 41599  97.4465 257.7233 0009399  39.1543 321.0370 15.19274989558266
SKYSAT-C1               
1 41601U 16040C   26198.04294709  .00005058  00000+0  14290-3 0  9990
2 41601  96.9547 228.1510 0000262 236.3178 123.8042 15.36766876562450
LAPAN-A3                
1 41603U 16040E   26198.14797934  .00001710  00000+0  55468-4 0  9995
2 41603  97.1506 193.3151 0008252 267.5035  92.5264 15.33284954559407
GAOFEN-3                
1 41727U 16049A   26198.19400169  .00000057  00000+0  30531-4 0  9994
2 41727  98.4012 205.5276 0001778  83.5804 276.5588 14.42218994522975
